STARLINK-36122          
1 66952U 25286AD  25359.75002315 -.01960768  00000+0 -28432-1 0  9996
2 66952  53.1595 345.5201 0000929  90.8672 323.7421 15.58709771  4084
HULIANWANG DIGUI-114    
1 66953U 25287A   25354.38141962  .00000019  00000+0  30336-5 0  9995
2 66953  86.4960 343.3747 0009673 185.0352 175.0710 13.66161866  1572
HULIANWANG DIGUI-115    
1 66954U 25287B   25358.92426492  .00000023  00000+0  84421-5 0  9993
2 66954  86.5036 341.7372 0003385 109.9724 250.1798 13.63539042  2198
HULIANWANG DIGUI-116    
1 66955U 25287C   25358.99508699  .00000148  00000+0  16529-3 0  9991
2 66955  86.4919 341.6856 0001633  94.3011 265.8333 13.64194122  2201
HULIANWANG DIGUI-117    
1 66956U 25287D   25358.91908891  .00000024  00000+0  90260-5 0  9991
2 66956  86.4976 341.7257 0001044 103.5815 256.5458 13.64670553  2192
HULIANWANG DIGUI-118    
1 66957U 25287E   25355.03488252  .00000128  00000+0  13223-3 0  9993
2 66957  86.4946 343.1304 0005472 170.9065 189.2194 13.67510110  1668
CZ-6A R/B               
1 66958U 25287F   25359.61477296  .00000096  00000+0  55171-4 0  9991
2 66958  86.5065 341.2060 0107107  63.4534 297.7572 13.94921580  2332
STARLINK-35887          
1 66959U 25288A   25359.75002315 -.01963135  00000+0 -23510-1 0  9998
2 66959  43.0003  87.9052 0001297 277.4918 312.0230 15.63386944  3929
STARLINK-35879          
1 66960U 25288B   25359.75002315 -.01959779  00000+0 -23464-1 0  9997
2 66960  43.0003  87.9004 0001348 277.7408 313.6887 15.63386406  3920
STARLINK-35761          
1 66961U 25288C   25359.75002315 -.01966167  00000+0 -23549-1 0  9991
2 66961  43.0002  87.8958 0001223 276.2569 317.0899 15.63389731  3926
STARLINK-35874          
1 66962U 25288D   25359.75002315 -.01960579  00000+0 -23474-1 0  9990
2 66962  43.0005  87.8908 0001377 277.8854 317.3776 15.63387179  3920
STARLINK-36133          
1 66963U 25288E   25359.75002315 -.01957787  00000+0 -23440-1 0  9991
2 66963  43.0004  87.8861 0001298 276.7009 320.4816 15.63384314  3928
